[Satellite]
VERSION=1.1
NAME=ALMASAT-1
NICKNAME=ALMASAT-1
TLE1=1 38078U 12006B   18018.53586390  .00024740  38950-5  23629-3 0  9994
TLE2=2 38078 069.4342 268.4015 0269549 330.6646 092.6918 15.33324261317663
